CHUANGXIN 16A (CX-16A)  
1 53586U 22102A   26068.83297444  .00003128  00000+0  20134-3 0  9993
2 53586  28.9941 256.1289 0005063  43.7318 316.3682 15.05552649194538
STARLINK-34723          
1 64842U 25152A   26068.55968047  .00008165  00000+0  56908-3 0  9995
2 64842  97.6019 285.3137 0001871  83.8830 276.2610 15.05672971 35391
